[
    {
        "Altitude(m)": 607897.6078467127,
        "Argument of Periapsis(deg)": 0.0,
        "Eccentricity": 0.0,
        "Inclination(deg)": 60.0,
        "Latitude(deg)": -14.292896245073877,
        "Longitude(deg)": 66.61877092229518,
        "Mean Anomaly(deg)": -16.363600000000087,
        "RAAN(deg)": 175.0,
        "Satellite Name": "Test1 791",
        "Satellite Number": 791,
        "Semi-Major Axis(m)": 6980739.136638005,
        "Time(s)": 0
    },
    {
        "Altitude(m)": 607750.8093122595,
        "Argument of Periapsis(deg)": 0.00010418945913296404,
        "Eccentricity": 0.0,
        "Inclination(deg)": 60.0,
        "Latitude(deg)": -13.75873732915673,
        "Longitude(deg)": 66.90583918764642,
        "Mean Anomaly(deg)": -15.743493854538235,
        "RAAN(deg)": 174.99957995086024,
        "Satellite Name": "Test1 791",
        "Satellite Number": 791,
        "Semi-Major Axis(m)": 6980739.136638005,
        "Time(s)": 10
    }
]